CORAL                   
1 67684U 98067YA  26090.66268081  .00098120  00000+0  12626-2 0  9993
2 67684  51.6295 321.6392 0013085 255.9556 103.9982 15.58165939  8216
GXIBA-1                 
1 67685U 98067YB  26090.34173012  .00049521  00000+0  74561-3 0  9996
2 67685  51.6317 323.9961 0012138 261.6169  98.3445 15.54234510  8153
UITMSAT-2               
1 67686U 98067YC  26090.90382428  .00063854  00000+0  92140-3 0  9990
2 67686  51.6313 321.0012 0009315 236.8226 123.1872 15.55321740  8241
HMU-SAT2                
1 67687U 98067YD  26090.66861119  .00050751  00000+0  77128-3 0  9994
2 67687  51.6312 322.4319 0008740 238.7051 121.3084 15.54008346  8129
LEOPARD                 
1 67688U 98067YE  26090.65429145  .00058871  00000+0  86636-3 0  9998
2 67688  51.6312 322.3359 0008949 236.2824 123.7315 15.54824398  8121
CREW DRAGON 12          
1 67796U 26031A   26090.84291376  .00010633  00000+0  20301-3 0  9995
2 67796  51.6336 322.8401 0006220 256.5772 103.4524 15.48686199559729
PROGRESS-MS 33          
1 68319U 26058A   26090.84291376  .00010633  00000+0  20301-3 0  9996
2 68319  51.6336 322.8401 0006220 256.5772 103.4524 15.48686199  1239
