CCSDS_OMM_VERS = 2.0
CREATION_DATE  = 
ORIGINATOR     = 

OBJECT_NAME    = CORAL
OBJECT_ID      = 1998-067YA
CENTER_NAME    = EARTH
REF_FRAME      = TEME
TIME_SYSTEM    = UTC
MEAN_ELEMENT_THEORY = SGP/SGP4

EPOCH          = 2026-03-31T15:54:15.621984
MEAN_MOTION    = 15.58165939
ECCENTRICITY   = .0013085
INCLINATION    = 51.6295
RA_OF_ASC_NODE = 321.6392
ARG_OF_PERICENTER = 255.9556
MEAN_ANOMALY   = 103.9982

EPHEMERIS_TYPE = 0
CLASSIFICATION_TYPE = U
NORAD_CAT_ID   = 67684
ELEMENT_SET_NO = 999
REV_AT_EPOCH   = 821
BSTAR          = .12626E-2
MEAN_MOTION_DOT = .9812E-3
MEAN_MOTION_DDOT = 0

CCSDS_OMM_VERS = 2.0
CREATION_DATE  = 
ORIGINATOR     = 

OBJECT_NAME    = GXIBA-1
OBJECT_ID      = 1998-067YB
CENTER_NAME    = EARTH
REF_FRAME      = TEME
TIME_SYSTEM    = UTC
MEAN_ELEMENT_THEORY = SGP/SGP4

EPOCH          = 2026-03-31T08:12:05.482368
MEAN_MOTION    = 15.54234510
ECCENTRICITY   = .00121387
INCLINATION    = 51.6317
RA_OF_ASC_NODE = 323.9961
ARG_OF_PERICENTER = 261.6169
MEAN_ANOMALY   = 98.3445

EPHEMERIS_TYPE = 0
CLASSIFICATION_TYPE = U
NORAD_CAT_ID   = 67685
ELEMENT_SET_NO = 999
REV_AT_EPOCH   = 815
BSTAR          = .74560945E-3
MEAN_MOTION_DOT = .49521E-3
MEAN_MOTION_DDOT = 0

CCSDS_OMM_VERS = 2.0
CREATION_DATE  = 
ORIGINATOR     = 

OBJECT_NAME    = UITMSAT-2
OBJECT_ID      = 1998-067YC
CENTER_NAME    = EARTH
REF_FRAME      = TEME
TIME_SYSTEM    = UTC
MEAN_ELEMENT_THEORY = SGP/SGP4

EPOCH          = 2026-03-31T21:41:30.417792
MEAN_MOTION    = 15.55321740
ECCENTRICITY   = .0009315
INCLINATION    = 51.6313
RA_OF_ASC_NODE = 321.0012
ARG_OF_PERICENTER = 236.8226
MEAN_ANOMALY   = 123.1872

EPHEMERIS_TYPE = 0
CLASSIFICATION_TYPE = U
NORAD_CAT_ID   = 67686
ELEMENT_SET_NO = 999
REV_AT_EPOCH   = 824
BSTAR          = .9214E-3
MEAN_MOTION_DOT = .63854E-3
MEAN_MOTION_DDOT = 0

CCSDS_OMM_VERS = 2.0
CREATION_DATE  = 
ORIGINATOR     = 

OBJECT_NAME    = HMU-SAT2
OBJECT_ID      = 1998-067YD
CENTER_NAME    = EARTH
REF_FRAME      = TEME
TIME_SYSTEM    = UTC
MEAN_ELEMENT_THEORY = SGP/SGP4

EPOCH          = 2026-03-31T16:02:48.006816
MEAN_MOTION    = 15.54008346
ECCENTRICITY   = .000874
INCLINATION    = 51.6312
RA_OF_ASC_NODE = 322.4319
ARG_OF_PERICENTER = 238.7051
MEAN_ANOMALY   = 121.3084

EPHEMERIS_TYPE = 0
CLASSIFICATION_TYPE = U
NORAD_CAT_ID   = 67687
ELEMENT_SET_NO = 999
REV_AT_EPOCH   = 812
BSTAR          = .77128E-3
MEAN_MOTION_DOT = .50751E-3
MEAN_MOTION_DDOT = 0

CCSDS_OMM_VERS = 2.0
CREATION_DATE  = 
ORIGINATOR     = 

OBJECT_NAME    = LEOPARD
OBJECT_ID      = 1998-067YE
CENTER_NAME    = EARTH
REF_FRAME      = TEME
TIME_SYSTEM    = UTC
MEAN_ELEMENT_THEORY = SGP/SGP4

EPOCH          = 2026-03-31T15:42:10.781280
MEAN_MOTION    = 15.54824398
ECCENTRICITY   = .0008949
INCLINATION    = 51.6312
RA_OF_ASC_NODE = 322.3359
ARG_OF_PERICENTER = 236.2824
MEAN_ANOMALY   = 123.7315

EPHEMERIS_TYPE = 0
CLASSIFICATION_TYPE = U
NORAD_CAT_ID   = 67688
ELEMENT_SET_NO = 999
REV_AT_EPOCH   = 812
BSTAR          = .86636E-3
MEAN_MOTION_DOT = .58871E-3
MEAN_MOTION_DDOT = 0

CCSDS_OMM_VERS = 2.0
CREATION_DATE  = 
ORIGINATOR     = 

OBJECT_NAME    = CREW DRAGON 12
OBJECT_ID      = 2026-031A
CENTER_NAME    = EARTH
REF_FRAME      = TEME
TIME_SYSTEM    = UTC
MEAN_ELEMENT_THEORY = SGP/SGP4

EPOCH          = 2026-03-31T20:13:47.748864
MEAN_MOTION    = 15.48686199
ECCENTRICITY   = .000622
INCLINATION    = 51.6336
RA_OF_ASC_NODE = 322.8401
ARG_OF_PERICENTER = 256.5772
MEAN_ANOMALY   = 103.4524

EPHEMERIS_TYPE = 0
CLASSIFICATION_TYPE = U
NORAD_CAT_ID   = 67796
ELEMENT_SET_NO = 999
REV_AT_EPOCH   = 55972
BSTAR          = .20301E-3
MEAN_MOTION_DOT = .10633E-3
MEAN_MOTION_DDOT = 0

CCSDS_OMM_VERS = 2.0
CREATION_DATE  = 
ORIGINATOR     = 

OBJECT_NAME    = PROGRESS-MS 33
OBJECT_ID      = 2026-058A
CENTER_NAME    = EARTH
REF_FRAME      = TEME
TIME_SYSTEM    = UTC
MEAN_ELEMENT_THEORY = SGP/SGP4

EPOCH          = 2026-03-31T20:13:47.748864
MEAN_MOTION    = 15.48686199
ECCENTRICITY   = .000622
INCLINATION    = 51.6336
RA_OF_ASC_NODE = 322.8401
ARG_OF_PERICENTER = 256.5772
MEAN_ANOMALY   = 103.4524

EPHEMERIS_TYPE = 0
CLASSIFICATION_TYPE = U
NORAD_CAT_ID   = 68319
ELEMENT_SET_NO = 999
REV_AT_EPOCH   = 123
BSTAR          = .20301E-3
MEAN_MOTION_DOT = .10633E-3
MEAN_MOTION_DDOT = 0

